ONEWEB-0012             
1 44057U 19010A   25235.19309612  .00000024  00000+0  29237-4 0  9991
2 44057  87.9011 288.2003 0002396  91.8401 268.3005 13.16592462312351
ONEWEB-0010             
1 44058U 19010B   25235.21843317  .00000174  00000+0  42192-3 0  9990
2 44058  87.9011 288.1782 0001650  87.0272 273.1048 13.16592993312406
ONEWEB-0008             
1 44059U 19010C   25235.16776372  .00000103  00000+0  23617-3 0  9994
2 44059  87.9011 288.1863 0002058 100.8718 259.2645 13.16595751312514
ONEWEB-0007             
1 44060U 19010D   25235.27038273 -.00001488  00000+0 -39874-2 0  9999
2 44060  87.9073 318.6612 0001883  83.1216 277.0128 13.15536727312203
ONEWEB-0006             
1 44061U 19010E   25235.27432094 -.00000013  00000+0 -69359-4 0  9995
2 44061  87.9071 318.6012 0001777  91.5932 268.5402 13.15549382312252
ONEWEB-0011             
1 44062U 19010F   25235.24265727  .00000023  00000+0  27654-4 0  9991
2 44062  87.9077 318.6188 0001734 103.0447 257.0877 13.15548747312248
ONEWEB-0013             
1 45131U 20008A   25235.16476501 -.00000322  00000+0 -97304-3 0  9995
2 45131  87.8526 113.0134 0002746  77.9149 282.2286 13.09435181267067
ONEWEB-0017             
1 45132U 20008B   25235.12915288  .00000386  00000+0  10702-2 0  9996
2 45132  87.8767  95.7233 0001505  76.2537 283.8758 13.10378957268911
ONEWEB-0020             
1 45133U 20008C   25234.56472087 -.00000652  00000+0 -19046-2 0  9997
2 45133  87.8762  95.8194 0001633  87.9682 272.1632 13.10374091269239
ONEWEB-0021             
1 45134U 20008D   25235.11415821 -.00000281  00000+0 -84090-3 0  9993
2 45134  87.8766  95.7438 0001737  77.7498 282.3823 13.10374532269618
ONEWEB-0023             
1 45136U 20008F   25235.12497246  .00000069  00000+0  16227-3 0  9996
2 45136  87.8765  95.7243 0001861  88.6315 271.5025 13.10376413269041
ONEWEB-0024             
1 45137U 20008G   25234.56306016 -.00000743  00000+0 -21651-2 0  9995
2 45137  87.8772  95.7857 0001707  80.0188 280.1132 13.10370890269132
ONEWEB-0025             
1 45138U 20008H   25235.11501050 -.00000297  00000+0 -88652-3 0  9992
2 45138  87.8784  95.6850 0002344  79.8543 280.2848 13.10374769269535
ONEWEB-0026             
1 45139U 20008J   25235.06706643 -.00000584  00000+0 -16825-2 0  9993
2 45139  87.8780  80.4734 0001497  86.6328 273.4971 13.11416692272033
ONEWEB-0028             
1 45140U 20008K   25234.48977674  .00000471  00000+0  12921-2 0  9990
2 45140  87.8775  80.6096 0002399  83.1037 277.0364 13.11415464269479
ONEWEB-0032             
1 45141U 20008L   25235.13076660  .00000143  00000+0  37412-3 0  9998
2 45141  87.8761  95.7243 0001901  81.0105 279.1237 13.10374986269268
