[{"OBJECT_NAME":"ONEWEB-0012","OBJECT_ID":"2019-010A","EPOCH":"2025-08-23T04:38:03.504768","MEAN_MOTION":13.16592462,"ECCENTRICITY":0.00023967,"INCLINATION":87.9011,"RA_OF_ASC_NODE":288.2003,"ARG_OF_PERICENTER":91.8401,"MEAN_ANOMALY":268.3005,"EPHEMERIS_TYPE":0,"CLASSIFICATION_TYPE":"U","NORAD_CAT_ID":44057,"ELEMENT_SET_NO":999,"REV_AT_EPOCH":31235,"BSTAR":2.9237153e-5,"MEAN_MOTION_DOT":2.4e-7,"MEAN_MOTION_DDOT":0},{"OBJECT_NAME":"ONEWEB-0010","OBJECT_ID":"2019-010B","EPOCH":"2025-08-23T05:14:32.625888","MEAN_MOTION":13.16592993,"ECCENTRICITY":0.00016509,"INCLINATION":87.9011,"RA_OF_ASC_NODE":288.1782,"ARG_OF_PERICENTER":87.0272,"MEAN_ANOMALY":273.1048,"EPHEMERIS_TYPE":0,"CLASSIFICATION_TYPE":"U","NORAD_CAT_ID":44058,"ELEMENT_SET_NO":999,"REV_AT_EPOCH":31240,"BSTAR":0.000421919,"MEAN_MOTION_DOT":1.74e-6,"MEAN_MOTION_DDOT":0},{"OBJECT_NAME":"ONEWEB-0008","OBJECT_ID":"2019-010C","EPOCH":"2025-08-23T04:01:34.785408","MEAN_MOTION":13.16595751,"ECCENTRICITY":0.00020584,"INCLINATION":87.9011,"RA_OF_ASC_NODE":288.1863,"ARG_OF_PERICENTER":100.8718,"MEAN_ANOMALY":259.2645,"EPHEMERIS_TYPE":0,"CLASSIFICATION_TYPE":"U","NORAD_CAT_ID":44059,"ELEMENT_SET_NO":999,"REV_AT_EPOCH":31251,"BSTAR":0.00023616737,"MEAN_MOTION_DOT":1.03e-6,"MEAN_MOTION_DDOT":0},{"OBJECT_NAME":"ONEWEB-0007","OBJECT_ID":"2019-010D","EPOCH":"2025-08-23T06:29:21.067872","MEAN_MOTION":13.15536727,"ECCENTRICITY":0.00018833,"INCLINATION":87.9073,"RA_OF_ASC_NODE":318.6612,"ARG_OF_PERICENTER":83.1216,"MEAN_ANOMALY":277.0128,"EPHEMERIS_TYPE":0,"CLASSIFICATION_TYPE":"U","NORAD_CAT_ID":44060,"ELEMENT_SET_NO":999,"REV_AT_EPOCH":31220,"BSTAR":-0.0039874061,"MEAN_MOTION_DOT":-1.488e-5,"MEAN_MOTION_DDOT":0},{"OBJECT_NAME":"ONEWEB-0006","OBJECT_ID":"2019-010E","EPOCH":"2025-08-23T06:35:01.329216","MEAN_MOTION":13.15549382,"ECCENTRICITY":0.00017777,"INCLINATION":87.9071,"RA_OF_ASC_NODE":318.6012,"ARG_OF_PERICENTER":91.5932,"MEAN_ANOMALY":268.5402,"EPHEMERIS_TYPE":0,"CLASSIFICATION_TYPE":"U","NORAD_CAT_ID":44061,"ELEMENT_SET_NO":999,"REV_AT_EPOCH":31225,"BSTAR":-6.9359389e-5,"MEAN_MOTION_DOT":-1.3e-7,"MEAN_MOTION_DDOT":0},{"OBJECT_NAME":"ONEWEB-0011","OBJECT_ID":"2019-010F","EPOCH":"2025-08-23T05:49:25.588128","MEAN_MOTION":13.15548747,"ECCENTRICITY":0.00017348,"INCLINATION":87.9077,"RA_OF_ASC_NODE":318.6188,"ARG_OF_PERICENTER":103.0447,"MEAN_ANOMALY":257.0877,"EPHEMERIS_TYPE":0,"CLASSIFICATION_TYPE":"U","NORAD_CAT_ID":44062,"ELEMENT_SET_NO":999,"REV_AT_EPOCH":31224,"BSTAR":2.7653739e-5,"MEAN_MOTION_DOT":2.3e-7,"MEAN_MOTION_DDOT":0},{"OBJECT_NAME":"ONEWEB-0013","OBJECT_ID":"2020-008A","EPOCH":"2025-08-23T03:57:15.696864","MEAN_MOTION":13.09435181,"ECCENTRICITY":0.00027467,"INCLINATION":87.8526,"RA_OF_ASC_NODE":113.0134,"ARG_OF_PERICENTER":77.9149,"MEAN_ANOMALY":282.2286,"EPHEMERIS_TYPE":0,"CLASSIFICATION_TYPE":"U","NORAD_CAT_ID":45131,"ELEMENT_SET_NO":999,"REV_AT_EPOCH":26706,"BSTAR":-0.00097303628,"MEAN_MOTION_DOT":-3.22e-6,"MEAN_MOTION_DDOT":0},{"OBJECT_NAME":"ONEWEB-0017","OBJECT_ID":"2020-008B","EPOCH":"2025-08-23T03:05:58.808832","MEAN_MOTION":13.10378957,"ECCENTRICITY":0.00015056,"INCLINATION":87.8767,"RA_OF_ASC_NODE":95.7233,"ARG_OF_PERICENTER":76.2537,"MEAN_ANOMALY":283.8758,"EPHEMERIS_TYPE":0,"CLASSIFICATION_TYPE":"U","NORAD_CAT_ID":45132,"ELEMENT_SET_NO":999,"REV_AT_EPOCH":26891,"BSTAR":0.0010702231,"MEAN_MOTION_DOT":3.86e-6,"MEAN_MOTION_DDOT":0},{"OBJECT_NAME":"ONEWEB-0020","OBJECT_ID":"2020-008C","EPOCH":"2025-08-22T13:33:11.883168","MEAN_MOTION":13.10374091,"ECCENTRICITY":0.00016332,"INCLINATION":87.8762,"RA_OF_ASC_NODE":95.8194,"ARG_OF_PERICENTER":87.9682,"MEAN_ANOMALY":272.1632,"EPHEMERIS_TYPE":0,"CLASSIFICATION_TYPE":"U","NORAD_CAT_ID":45133,"ELEMENT_SET_NO":999,"REV_AT_EPOCH":26923,"BSTAR":-0.0019046054,"MEAN_MOTION_DOT":-6.52e-6,"MEAN_MOTION_DDOT":0},{"OBJECT_NAME":"ONEWEB-0021","OBJECT_ID":"2020-008D","EPOCH":"2025-08-23T02:44:23.269344","MEAN_MOTION":13.10374532,"ECCENTRICITY":0.0001737,"INCLINATION":87.8766,"RA_OF_ASC_NODE":95.7438,"ARG_OF_PERICENTER":77.7498,"MEAN_ANOMALY":282.3823,"EPHEMERIS_TYPE":0,"CLASSIFICATION_TYPE":"U","NORAD_CAT_ID":45134,"ELEMENT_SET_NO":999,"REV_AT_EPOCH":26961,"BSTAR":-0.0008409049,"MEAN_MOTION_DOT":-2.81e-6,"MEAN_MOTION_DDOT":0},{"OBJECT_NAME":"ONEWEB-0023","OBJECT_ID":"2020-008F","EPOCH":"2025-08-23T02:59:57.620544","MEAN_MOTION":13.10376413,"ECCENTRICITY":0.00018618,"INCLINATION":87.8765,"RA_OF_ASC_NODE":95.7243,"ARG_OF_PERICENTER":88.6315,"MEAN_ANOMALY":271.5025,"EPHEMERIS_TYPE":0,"CLASSIFICATION_TYPE":"U","NORAD_CAT_ID":45136,"ELEMENT_SET_NO":999,"REV_AT_EPOCH":26904,"BSTAR":0.00016226776,"MEAN_MOTION_DOT":6.9e-7,"MEAN_MOTION_DDOT":0},{"OBJECT_NAME":"ONEWEB-0024","OBJECT_ID":"2020-008G","EPOCH":"2025-08-22T13:30:48.397824","MEAN_MOTION":13.1037089,"ECCENTRICITY":0.00017077,"INCLINATION":87.8772,"RA_OF_ASC_NODE":95.7857,"ARG_OF_PERICENTER":80.0188,"MEAN_ANOMALY":280.1132,"EPHEMERIS_TYPE":0,"CLASSIFICATION_TYPE":"U","NORAD_CAT_ID":45137,"ELEMENT_SET_NO":999,"REV_AT_EPOCH":26913,"BSTAR":-0.0021650653,"MEAN_MOTION_DOT":-7.43e-6,"MEAN_MOTION_DDOT":0},{"OBJECT_NAME":"ONEWEB-0025","OBJECT_ID":"2020-008H","EPOCH":"2025-08-23T02:45:36.907200","MEAN_MOTION":13.10374769,"ECCENTRICITY":0.00023446,"INCLINATION":87.8784,"RA_OF_ASC_NODE":95.685,"ARG_OF_PERICENTER":79.8543,"MEAN_ANOMALY":280.2848,"EPHEMERIS_TYPE":0,"CLASSIFICATION_TYPE":"U","NORAD_CAT_ID":45138,"ELEMENT_SET_NO":999,"REV_AT_EPOCH":26953,"BSTAR":-0.00088651792,"MEAN_MOTION_DOT":-2.97e-6,"MEAN_MOTION_DDOT":0},{"OBJECT_NAME":"ONEWEB-0026","OBJECT_ID":"2020-008J","EPOCH":"2025-08-23T01:36:34.539552","MEAN_MOTION":13.11416692,"ECCENTRICITY":0.00014976,"INCLINATION":87.878,"RA_OF_ASC_NODE":80.4734,"ARG_OF_PERICENTER":86.6328,"MEAN_ANOMALY":273.4971,"EPHEMERIS_TYPE":0,"CLASSIFICATION_TYPE":"U","NORAD_CAT_ID":45139,"ELEMENT_SET_NO":999,"REV_AT_EPOCH":27203,"BSTAR":-0.00168253,"MEAN_MOTION_DOT":-5.84e-6,"MEAN_MOTION_DDOT":0},{"OBJECT_NAME":"ONEWEB-0028","OBJECT_ID":"2020-008K","EPOCH":"2025-08-22T11:45:16.710336","MEAN_MOTION":13.11415464,"ECCENTRICITY":0.00023996,"INCLINATION":87.8775,"RA_OF_ASC_NODE":80.6096,"ARG_OF_PERICENTER":83.1037,"MEAN_ANOMALY":277.0364,"EPHEMERIS_TYPE":0,"CLASSIFICATION_TYPE":"U","NORAD_CAT_ID":45140,"ELEMENT_SET_NO":999,"REV_AT_EPOCH":26947,"BSTAR":0.0012920852,"MEAN_MOTION_DOT":4.71e-6,"MEAN_MOTION_DDOT":0},{"OBJECT_NAME":"ONEWEB-0032","OBJECT_ID":"2020-008L","EPOCH":"2025-08-23T03:08:18.234240","MEAN_MOTION":13.10374986,"ECCENTRICITY":0.00019012,"INCLINATION":87.8761,"RA_OF_ASC_NODE":95.7243,"ARG_OF_PERICENTER":81.0105,"MEAN_ANOMALY":279.1237,"EPHEMERIS_TYPE":0,"CLASSIFICATION_TYPE":"U","NORAD_CAT_ID":45141,"ELEMENT_SET_NO":999,"REV_AT_EPOCH":26926,"BSTAR":0.00037412073,"MEAN_MOTION_DOT":1.43e-6,"MEAN_MOTION_DDOT":0}]
